IRIDIUM 119             
1 42959U 17061E   25009.16512545  .00000469  00000+0  16045-3 0  9996
2 42959  86.3955 244.1863 0001715  85.3969 274.7422 14.34216957379705
IRIDIUM 107             
1 42960U 17061F   25009.18415706  .00000468  00000+0  16004-3 0  9995
2 42960  86.3955 244.1966 0001709  98.4325 261.7065 14.34216659379714
IRIDIUM 132             
1 42961U 17061G   25009.12072857  .00000446  00000+0  15213-3 0  9993
2 42961  86.3956 244.2063 0001985  90.6576 269.4847 14.34218701379705
IRIDIUM 136             
1 42962U 17061H   25009.15243917  .00000502  00000+0  17218-3 0  9994
2 42962  86.3956 244.1971 0001556  87.7732 272.3642 14.34216462379728
IRIDIUM 139             
1 42963U 17061J   25009.15877833  .00000558  00000+0  19216-3 0  9996
2 42963  86.3958 244.2478 0001783  93.8414 266.2986 14.34214551379732
IRIDIUM 125             
1 42964U 17061K   25009.14610646  .00000457  00000+0  15608-3 0  9992
2 42964  86.3959 244.3047 0001406  82.7509 277.3847 14.34214230379745
IRIDIUM 135             
1 43070U 17083A   25009.81790910  .00000198  00000+0  63615-4 0  9996
2 43070  86.3996 180.7510 0002245  89.5846 270.5607 14.34217535369136
IRIDIUM 138             
1 43071U 17083B   25009.84327407  .00000165  00000+0  52002-4 0  9999
2 43071  86.3986 180.4321 0001545  76.0636 284.0732 14.34218805369122
